{
  "type": "FeatureCollection",
  "features": [
    {
      "type": "Feature",
      "properties": {
        "norad_id": 46805,
        "name": "COSMOS 2547 (705K)",
        "group": "glo-ops",
        "lat": -39.73115096361547,
        "lon": 175.76201810856463,
        "alt_km": 19133.723980924045,
        "timestamp": "2025-12-03T04:52:29.898267+00:00",
        "meta_object_name": "COSMOS 2547 (705K)",
        "meta_object_id": "2020-075A",
        "meta_epoch": "2025-11-30T21:58:22.930752",
        "meta_mean_motion": 2.13099889,
        "meta_eccentricity": 0.00063143,
        "meta_inclination": 64.5957,
        "meta_ra_of_asc_node": 199.0914,
        "meta_arg_of_pericenter": 229.6069,
        "meta_mean_anomaly": 130.4292,
        "meta_ephemeris_type": 0,
        "meta_classification_type": "U",
        "meta_norad_cat_id": 46805,
        "meta_element_set_no": 999,
        "meta_rev_at_epoch": 3968,
        "meta_bstar": 0,
        "meta_mean_motion_dot": 9.8e-07,
        "meta_mean_motion_ddot": 0,
        "tle_line1": "1 46805U 20075A   25334.91554318  .00000098  00000+0  00000+0 0  9995",
        "tle_line2": "2 46805  64.5957 199.0914 0006314 229.6069 130.4292  2.13099889 39688"
      },
      "geometry": {
        "type": "Point",
        "coordinates": [
          175.76201810856463,
          -39.73115096361547
        ]
      }
    },
    {
      "type": "Feature",
      "properties": {
        "norad_id": 52984,
        "name": "COSMOS 2557 (706K)",
        "group": "glo-ops",
        "lat": -7.083180333975731,
        "lon": 144.7931767644281,
        "alt_km": 19130.40400698465,
        "timestamp": "2025-12-03T04:52:29.898278+00:00",
        "meta_object_name": "COSMOS 2557 (706K)",
        "meta_object_id": "2022-075A",
        "meta_epoch": "2025-12-01T01:56:28.375008",
        "meta_mean_motion": 2.13101767,
        "meta_eccentricity": 0.00137561,
        "meta_inclination": 64.4163,
        "meta_ra_of_asc_node": 321.4618,
        "meta_arg_of_pericenter": 276.3647,
        "meta_mean_anomaly": 83.4921,
        "meta_ephemeris_type": 0,
        "meta_classification_type": "U",
        "meta_norad_cat_id": 52984,
        "meta_element_set_no": 999,
        "meta_rev_at_epoch": 2649,
        "meta_bstar": 0,
        "meta_mean_motion_dot": -2.7e-07,
        "meta_mean_motion_ddot": 0,
        "tle_line1": "1 52984U 22075A   25335.08088397 -.00000027  00000+0  00000+0 0  9993",
        "tle_line2": "2 52984  64.4163 321.4618 0013756 276.3647  83.4921  2.13101767 26492"
      },
      "geometry": {
        "type": "Point",
        "coordinates": [
          144.7931767644281,
          -7.083180333975731
        ]
      }
    },
    {
      "type": "Feature",
      "properties": {
        "norad_id": 54031,
        "name": "COSMOS 2559 (707K)",
        "group": "glo-ops",
        "lat": -29.472378263514592,
        "lon": -54.26296736138297,
        "alt_km": 19155.364161209032,
        "timestamp": "2025-12-03T04:52:29.898289+00:00",
        "meta_object_name": "COSMOS 2559 (707K)",
        "meta_object_id": "2022-130A",
        "meta_epoch": "2025-12-02T07:23:14.790048",
        "meta_mean_motion": 2.1310125,
        "meta_eccentricity": 0.00120758,
        "meta_inclination": 64.3878,
        "meta_ra_of_asc_node": 321.5084,
        "meta_arg_of_pericenter": 192.7828,
        "meta_mean_anomaly": 167.1956,
        "meta_ephemeris_type": 0,
        "meta_classification_type": "U",
        "meta_norad_cat_id": 54031,
        "meta_element_set_no": 999,
        "meta_rev_at_epoch": 2449,
        "meta_bstar": 0,
        "meta_mean_motion_dot": -3.6e-07,
        "meta_mean_motion_ddot": 0,
        "tle_line1": "1 54031U 22130A   25336.30781007 -.00000036  00000+0  00000+0 0  9994",
        "tle_line2": "2 54031  64.3878 321.5084 0012075 192.7828 167.1956  2.13101250 24495"
      },
      "geometry": {
        "type": "Point",
        "coordinates": [
          -54.26296736138297,
          -29.472378263514592
        ]
      }
    },
    {
      "type": "Feature",
      "properties": {
        "norad_id": 54377,
        "name": "COSMOS 2564 (761)",
        "group": "glo-ops",
        "lat": 64.4687716979657,
        "lon": -79.59590979853428,
        "alt_km": 19134.278553920325,
        "timestamp": "2025-12-03T04:52:29.898300+00:00",
        "meta_object_name": "COSMOS 2564 (761)",
        "meta_object_id": "2022-161A",
        "meta_epoch": "2025-12-01T05:07:31.965888",
        "meta_mean_motion": 2.13101951,
        "meta_eccentricity": 0.0008738,
        "meta_inclination": 64.7376,
        "meta_ra_of_asc_node": 199.2819,
        "meta_arg_of_pericenter": 206.5464,
        "meta_mean_anomaly": 153.5009,
        "meta_ephemeris_type": 0,
        "meta_classification_type": "U",
        "meta_norad_cat_id": 54377,
        "meta_element_set_no": 999,
        "meta_rev_at_epoch": 2341,
        "meta_bstar": 0,
        "meta_mean_motion_dot": 1e-06,
        "meta_mean_motion_ddot": 0,
        "tle_line1": "1 54377U 22161A   25335.21356442  .00000100  00000+0  00000+0 0  9992",
        "tle_line2": "2 54377  64.7376 199.2819 0008738 206.5464 153.5009  2.13101951 23419"
      },
      "geometry": {
        "type": "Point",
        "coordinates": [
          -79.59590979853428,
          64.4687716979657
        ]
      }
    },
    {
      "type": "Feature",
      "properties": {
        "norad_id": 57517,
        "name": "COSMOS 2569 (703K)",
        "group": "glo-ops",
        "lat": 61.755183915607354,
        "lon": 138.52997347930705,
        "alt_km": 19145.043974494336,
        "timestamp": "2025-12-03T04:52:29.898311+00:00",
        "meta_object_name": "COSMOS 2569 (703K)",
        "meta_object_id": "2023-114A",
        "meta_epoch": "2025-12-01T05:26:50.828352",
        "meta_mean_motion": 2.13103848,
        "meta_eccentricity": 0.0010073,
        "meta_inclination": 65.188,
        "meta_ra_of_asc_node": 79.3026,
        "meta_arg_of_pericenter": 287.0136,
        "meta_mean_anomaly": 72.876,
        "meta_ephemeris_type": 0,
        "meta_classification_type": "U",
        "meta_norad_cat_id": 57517,
        "meta_element_set_no": 999,
        "meta_rev_at_epoch": 1804,
        "meta_bstar": 0,
        "meta_mean_motion_dot": -1.2e-07,
        "meta_mean_motion_ddot": 0,
        "tle_line1": "1 57517U 23114A   25335.22697718 -.00000012  00000+0  00000+0 0  9998",
        "tle_line2": "2 57517  65.1880  79.3026 0010073 287.0136  72.8760  2.13103848 18043"
      },
      "geometry": {
        "type": "Point",
        "coordinates": [
          138.52997347930705,
          61.755183915607354
        ]
      }
    },
    {
      "type": "Feature",
      "properties": {
        "norad_id": 63130,
        "name": "COSMOS 2584 (704K)",
        "group": "glo-ops",
        "lat": 15.345863995293879,
        "lon": -107.88587676890302,
        "alt_km": 19115.79689394035,
        "timestamp": "2025-12-03T04:52:29.898323+00:00",
        "meta_object_name": "COSMOS 2584 (704K)",
        "meta_object_id": "2025-042A",
        "meta_epoch": "2025-11-26T10:06:10.904256",
        "meta_mean_motion": 2.13103062,
        "meta_eccentricity": 0.00075218,
        "meta_inclination": 64.9668,
        "meta_ra_of_asc_node": 79.7019,
        "meta_arg_of_pericenter": 212.3772,
        "meta_mean_anomaly": 147.585,
        "meta_ephemeris_type": 0,
        "meta_classification_type": "U",
        "meta_norad_cat_id": 63130,
        "meta_element_set_no": 999,
        "meta_rev_at_epoch": 572,
        "meta_bstar": 0,
        "meta_mean_motion_dot": 1.8e-07,
        "meta_mean_motion_ddot": 0,
        "tle_line1": "1 63130U 25042A   25330.42095954  .00000018  00000+0  00000+0 0  9994",
        "tle_line2": "2 63130  64.9668  79.7019 0007521 212.3772 147.5850  2.13103062  5728"
      },
      "geometry": {
        "type": "Point",
        "coordinates": [
          -107.88587676890302,
          15.345863995293879
        ]
      }
    },
    {
      "type": "Feature",
      "properties": {
        "norad_id": 65590,
        "name": "COSMOS 2596 (708K)",
        "group": "glo-ops",
        "lat": -62.36666699601201,
        "lon": -102.57521314171348,
        "alt_km": 19103.44904863378,
        "timestamp": "2025-12-03T04:52:29.898334+00:00",
        "meta_object_name": "COSMOS 2596 (708K)",
        "meta_object_id": "2025-206B",
        "meta_epoch": "2025-12-01T01:16:47.699904",
        "meta_mean_motion": 2.13100271,
        "meta_eccentricity": 0.00140756,
        "meta_inclination": 64.7507,
        "meta_ra_of_asc_node": 321.8815,
        "meta_arg_of_pericenter": 304.7151,
        "meta_mean_anomaly": 127.6712,
        "meta_ephemeris_type": 0,
        "meta_classification_type": "U",
        "meta_norad_cat_id": 65590,
        "meta_element_set_no": 999,
        "meta_rev_at_epoch": 168,
        "meta_bstar": 0,
        "meta_mean_motion_dot": -2.6e-07,
        "meta_mean_motion_ddot": 0,
        "tle_line1": "1 65590U 25206B   25335.05332986 -.00000026  00000+0  00000+0 0  9991",
        "tle_line2": "2 65590  64.7507 321.8815 0014075 304.7151 127.6712  2.13100271  1680"
      },
      "geometry": {
        "type": "Point",
        "coordinates": [
          -102.57521314171348,
          -62.36666699601201
        ]
      }
    }
  ]
}